GLOBALSTAR M067         
1 32263U 07048A   25202.56156596 -.00000073  00000+0  17854-3 0  9997
2 32263  51.9738 295.3522 0001350  82.3585 290.6572 12.40674495813756
GLOBALSTAR M070         
1 32264U 07048B   25202.91442115 -.00000081  00000+0  12552-3 0  9991
2 32264  51.9766  22.7095 0000809  98.9948  48.3623 12.62320398818056
GLOBALSTAR M068         
1 32266U 07048D   25203.13837124 -.00000114  00000+0 -55174-4 0  9992
2 32266  51.9866 195.7137 0000921 213.6996 223.6938 12.62826404822265
GLOBALSTAR M074         
1 37189U 10054B   25202.79649351 -.00000096  00000+0  44820-4 0  9990
2 37189  52.0029  33.7487 0000992  85.1659 288.2170 12.62266716681433
GLOBALSTAR M077         
1 37191U 10054D   25202.83952109 -.00000100  00000+0  23531-4 0  9998
2 37191  52.0095 350.6569 0000844  98.5281  51.8960 12.62268866682267
